[{"OBJECT_NAME":"STARLINK-6211","OBJECT_ID":"2023-088M","EPOCH":"2026-03-09T03:24:07.296768","MEAN_MOTION":15.02533802,"ECCENTRICITY":0.00015891,"INCLINATION":43.0026,"RA_OF_ASC_NODE":110.7549,"ARG_OF_PERICENTER":269.935,"MEAN_ANOMALY":90.131,"EPHEMERIS_TYPE":0,"CLASSIFICATION_TYPE":"U","NORAD_CAT_ID":57059,"ELEMENT_SET_NO":999,"REV_AT_EPOCH":15028,"BSTAR":-3.5975152e-5,"MEAN_MOTION_DOT":-6.9e-6,"MEAN_MOTION_DDOT":0},{"OBJECT_NAME":"CZ-6A DEB","OBJECT_ID":"2024-140AAB","EPOCH":"2026-03-09T18:42:45.551232","MEAN_MOTION":14.75868329,"ECCENTRICITY":0.01279091,"INCLINATION":90.0458,"RA_OF_ASC_NODE":355.5717,"ARG_OF_PERICENTER":143.51,"MEAN_ANOMALY":217.4925,"EPHEMERIS_TYPE":0,"CLASSIFICATION_TYPE":"U","NORAD_CAT_ID":61469,"ELEMENT_SET_NO":999,"REV_AT_EPOCH":8297,"BSTAR":0.0010387608,"MEAN_MOTION_DOT":8.171e-5,"MEAN_MOTION_DDOT":0}]
